"""Vendored SAR-like near-polar TLE pool for regional_coverage generation."""

from __future__ import annotations

CACHED_SATELLITES: tuple[dict[str, str], ...] = (
    {
        "satellite_id": "sat_iceye-x2",
        "name": "ICEYE-X2",
        "norad_catalog_id": "43800",
        "tle_epoch": "2025-07-17T04:22:27.546Z",
        "tle_line1": "1 43800U 18099AU  25198.18226327  .00004966  00000-0  28924-3 0  9991",
        "tle_line2": "2 43800  97.4850 253.1891 0011968  31.8178 328.3774 15.12407443362097",
    },
    {
        "satellite_id": "sat_iceye-x5",
        "name": "ICEYE-X5",
        "norad_catalog_id": "44389",
        "tle_epoch": "2025-07-17T04:34:10.105Z",
        "tle_line1": "1 44389U 19038C   25198.19039474  .00015630  00000-0  49052-3 0  9999",
        "tle_line2": "2 44389  97.9126 220.0010 0009728  22.5714 337.5952 15.33088716331302",
    },
    {
        "satellite_id": "sat_iceye-x4",
        "name": "ICEYE-X4",
        "norad_catalog_id": "44390",
        "tle_epoch": "2025-07-17T05:14:02.401Z",
        "tle_line1": "1 44390U 19038D   25198.21808335  .00008290  00000-0  38077-3 0  9993",
        "tle_line2": "2 44390  97.9024 208.0894 0016996  36.4193 323.8194 15.20542452330759",
    },
    {
        "satellite_id": "sat_iceye-x7",
        "name": "ICEYE-X7",
        "norad_catalog_id": "46496",
        "tle_epoch": "2025-07-17T04:37:22.404Z",
        "tle_line1": "1 46496U 20068L   25198.19262042  .00008939  00000-0  39342-3 0  9999",
        "tle_line2": "2 46496  97.7077 147.8940 0011341  67.3099 292.9334 15.22043600263674",
    },
    {
        "satellite_id": "sat_iceye-x6",
        "name": "ICEYE-X6",
        "norad_catalog_id": "46497",
        "tle_epoch": "2025-07-17T04:47:03.879Z",
        "tle_line1": "1 46497U 20068M   25198.19935046  .00004254  00000-0  33772-3 0  9998",
        "tle_line2": "2 46497  98.0682 172.2514 0004744 114.5141 245.6577 15.01058397262918",
    },
    {
        "satellite_id": "sat_iceye-x11",
        "name": "ICEYE-X11",
        "norad_catalog_id": "48918",
        "tle_epoch": "2025-07-17T04:48:25.273Z",
        "tle_line1": "1 48918U 21059AR  25198.20029252  .00022303  00000-0  43262-3 0  9994",
        "tle_line2": "2 48918  97.6589   3.5479 0010524 127.8955 232.3247 15.47631360225573",
    },
    {
        "satellite_id": "sat_iceye-x21",
        "name": "ICEYE-X21",
        "norad_catalog_id": "55049",
        "tle_epoch": "2025-07-17T04:09:34.047Z",
        "tle_line1": "1 55049U 23001AS  25198.17331073  .00020181  00000-0  44589-3 0  9994",
        "tle_line2": "2 55049  97.3728 264.9719 0015816 192.4139 167.6721 15.43751474141196",
    },
    {
        "satellite_id": "sat_iceye-x27",
        "name": "ICEYE-X27",
        "norad_catalog_id": "55062",
        "tle_epoch": "2025-07-16T18:11:49.756Z",
        "tle_line1": "1 55062U 23001BF  25197.75821477  .00044987  00000-0  61256-3 0  9994",
        "tle_line2": "2 55062  97.3659 265.8026 0003642 205.6884 154.4191 15.57420719141211",
    },
    {
        "satellite_id": "sat_iceye-x30",
        "name": "ICEYE-X30",
        "norad_catalog_id": "56947",
        "tle_epoch": "2025-07-16T22:27:35.569Z",
        "tle_line1": "1 56947U 23084R   25197.93582835  .00021672  00000-0  48397-3 0  9997",
        "tle_line2": "2 56947  97.5667 330.5306 0007728 110.9563 249.2512 15.43525623116595",
    },
    {
        "satellite_id": "sat_iceye-x26",
        "name": "ICEYE-X26",
        "norad_catalog_id": "56961",
        "tle_epoch": "2025-07-16T22:26:00.379Z",
        "tle_line1": "1 56961U 23084AF  25197.93472661  .00027536  00000-0  48795-3 0  9995",
        "tle_line2": "2 56961  97.5643 332.6812 0001815  62.8062 297.3374 15.50239059116739",
    },
    {
        "satellite_id": "sat_iceye-x31",
        "name": "ICEYE-X31",
        "norad_catalog_id": "58288",
        "tle_epoch": "2025-07-17T05:16:13.078Z",
        "tle_line1": "1 58288U 23174AJ  25198.21959582  .00010257  00000-0  44543-3 0  9992",
        "tle_line2": "2 58288  97.4152 271.3853 0004792  79.6683 280.5093 15.22490304 93594",
    },
    {
        "satellite_id": "sat_iceye-x38",
        "name": "ICEYE-X38",
        "norad_catalog_id": "59100",
        "tle_epoch": "2025-07-17T03:48:33.122Z",
        "tle_line1": "1 59100U 24043C   25198.15871670  .00003408  00000-0  22786-3 0  9991",
        "tle_line2": "2 59100  97.7999 329.8977 0004109 129.3903 230.7689 15.07656642 74911",
    },
    {
        "satellite_id": "sat_iceye-x43",
        "name": "ICEYE-X43",
        "norad_catalog_id": "60539",
        "tle_epoch": "2025-07-17T04:10:17.806Z",
        "tle_line1": "1 60539U 24149BZ  25198.17381721  .00002779  00000-0  24650-3 0  9993",
        "tle_line2": "2 60539  97.7127 274.6316 0005085 102.9067 257.2723 14.96993599 49948",
    },
    {
        "satellite_id": "sat_iceye-x42",
        "name": "ICEYE-X42",
        "norad_catalog_id": "62698",
        "tle_epoch": "2025-07-16T18:11:00.855Z",
        "tle_line1": "1 62698U 25009CT  25197.75764879  .00001800  00000-0  18016-3 0  9992",
        "tle_line2": "2 62698  97.7358 277.1554 0003322  82.8718 277.2879 14.92649037 27272",
    },
    {
        "satellite_id": "sat_iceye-x45",
        "name": "ICEYE-X45",
        "norad_catalog_id": "62705",
        "tle_epoch": "2025-07-16T18:43:19.526Z",
        "tle_line1": "1 62705U 25009DA  25197.78008711  .00004327  00000-0  34466-3 0  9994",
        "tle_line2": "2 62705  97.7568 278.5032 0001681 132.5695 227.5671 15.00888737 27374",
    },
    {
        "satellite_id": "sat_iceye-x50",
        "name": "ICEYE-X50",
        "norad_catalog_id": "63255",
        "tle_epoch": "2025-07-17T04:12:15.724Z",
        "tle_line1": "1 63255U 25052AX  25198.17518200  .00001597  00000-0  15702-3 0  9994",
        "tle_line2": "2 63255  97.7253  91.1881 0000724 209.0702 151.0478 14.93504225 18614",
    },
)

